SL-16 R/B               
1 22566U 93016B   26004.39276232 -.00000043  00000+0  21821-5 0  9992
2 22566  71.0089 350.2244 0008149  51.6776 308.5078 14.15296504693075
COSMOS 2242             
1 22626U 93024A   26004.44175668  .00003599  00000+0  31598-3 0  9993
2 22626  82.5203 328.1439 0016950 155.6051 204.5977 14.96227255770780
SL-16 R/B               
1 22803U 93059B   26004.53007697 -.00000146  00000+0 -48507-4 0  9990
2 22803  70.9900 146.4278 0019222 303.4370  56.4915 14.17219110670448
ARIANE 40 R/B           
1 22830U 93061H   26004.17435114  .00000500  00000+0  19915-3 0  9994
2 22830  98.5043  74.2928 0011766 113.7284 246.5136 14.32819504684861
COSMOS 2278             
1 23087U 94023A   26004.30938529  .00000463  00000+0  26681-3 0  9997
2 23087  71.0546 309.7907 0007319 138.4772 221.6908 14.14355882635702
SL-16 R/B               
1 23088U 94023B   26004.24370824  .00000224  00000+0  14044-3 0  9994
2 23088  70.9982 206.2278 0002609 353.9910   6.1181 14.14999585636975
SL-16 R/B               
1 23343U 94074B   26004.54926391  .00000806  00000+0  11488-3 0  9998
2 23343  97.7179  37.9446 0007954  73.8292  50.3486 14.79321537677767
SL-16 R/B               
1 23405U 94077B   26004.53311634 -.00000058  00000+0 -52866-5 0  9995
2 23405  70.9828 127.4634 0004946 265.4463  94.6095 14.15550041607158
ARIANE 40+ R/B          
1 23561U 95021B   26004.17791972  .00000558  00000+0  19197-3 0  9996
2 23561  98.4620  76.4932 0006283 344.0650  41.8767 14.39716445609967
SL-16 R/B               
1 23705U 95058B   26004.32494682  .00000342  00000+0  19921-3 0  9997
2 23705  71.0226 315.3865 0014169 224.9165 135.0813 14.15484938558745
SL-16 R/B               
1 24298U 96051B   26004.29333756  .00000044  00000+0  50673-4 0  9998
2 24298  70.7599 311.5443 0019361 233.7372 126.1959 14.12399406512552
ORBVIEW 2 (SEASTAR)     
1 24883U 97037A   26004.43014874  .00000498  00000+0  18961-3 0  9992
2 24883  98.8472 167.0782 0001407 233.6006 126.5048 14.35437706499253
