CCSDS_OMM_VERS = 2.0
CREATION_DATE  = 
ORIGINATOR     = 

OBJECT_NAME    = SL-16 R/B
OBJECT_ID      = 1993-016B
CENTER_NAME    = EARTH
REF_FRAME      = TEME
TIME_SYSTEM    = UTC
MEAN_ELEMENT_THEORY = SGP/SGP4

EPOCH          = 2026-01-04T09:25:34.664448
MEAN_MOTION    = 14.15296504
ECCENTRICITY   = .0008149
INCLINATION    = 71.0089
RA_OF_ASC_NODE = 350.2244
ARG_OF_PERICENTER = 51.6776
MEAN_ANOMALY   = 308.5078

EPHEMERIS_TYPE = 0
CLASSIFICATION_TYPE = U
NORAD_CAT_ID   = 22566
ELEMENT_SET_NO = 999
REV_AT_EPOCH   = 69307
BSTAR          = .21821E-5
MEAN_MOTION_DOT = -.43E-6
MEAN_MOTION_DDOT = 0

CCSDS_OMM_VERS = 2.0
CREATION_DATE  = 
ORIGINATOR     = 

OBJECT_NAME    = COSMOS 2242
OBJECT_ID      = 1993-024A
CENTER_NAME    = EARTH
REF_FRAME      = TEME
TIME_SYSTEM    = UTC
MEAN_ELEMENT_THEORY = SGP/SGP4

EPOCH          = 2026-01-04T10:36:07.777152
MEAN_MOTION    = 14.96227255
ECCENTRICITY   = .001695
INCLINATION    = 82.5203
RA_OF_ASC_NODE = 328.1439
ARG_OF_PERICENTER = 155.6051
MEAN_ANOMALY   = 204.5977

EPHEMERIS_TYPE = 0
CLASSIFICATION_TYPE = U
NORAD_CAT_ID   = 22626
ELEMENT_SET_NO = 999
REV_AT_EPOCH   = 77078
BSTAR          = .31598E-3
MEAN_MOTION_DOT = .3599E-4
MEAN_MOTION_DDOT = 0

CCSDS_OMM_VERS = 2.0
CREATION_DATE  = 
ORIGINATOR     = 

OBJECT_NAME    = SL-16 R/B
OBJECT_ID      = 1993-059B
CENTER_NAME    = EARTH
REF_FRAME      = TEME
TIME_SYSTEM    = UTC
MEAN_ELEMENT_THEORY = SGP/SGP4

EPOCH          = 2026-01-04T12:43:18.650208
MEAN_MOTION    = 14.17219110
ECCENTRICITY   = .0019222
INCLINATION    = 70.9900
RA_OF_ASC_NODE = 146.4278
ARG_OF_PERICENTER = 303.4370
MEAN_ANOMALY   = 56.4915

EPHEMERIS_TYPE = 0
CLASSIFICATION_TYPE = U
NORAD_CAT_ID   = 22803
ELEMENT_SET_NO = 999
REV_AT_EPOCH   = 67044
BSTAR          = -.48507E-4
MEAN_MOTION_DOT = -.146E-5
MEAN_MOTION_DDOT = 0

CCSDS_OMM_VERS = 2.0
CREATION_DATE  = 
ORIGINATOR     = 

OBJECT_NAME    = ARIANE 40 R/B
OBJECT_ID      = 1993-061H
CENTER_NAME    = EARTH
REF_FRAME      = TEME
TIME_SYSTEM    = UTC
MEAN_ELEMENT_THEORY = SGP/SGP4

EPOCH          = 2026-01-04T04:11:03.938496
MEAN_MOTION    = 14.32819504
ECCENTRICITY   = .00117667
INCLINATION    = 98.5043
RA_OF_ASC_NODE = 74.2928
ARG_OF_PERICENTER = 113.7284
MEAN_ANOMALY   = 246.5136

EPHEMERIS_TYPE = 0
CLASSIFICATION_TYPE = U
NORAD_CAT_ID   = 22830
ELEMENT_SET_NO = 999
REV_AT_EPOCH   = 68486
BSTAR          = .19915159E-3
MEAN_MOTION_DOT = .5E-5
MEAN_MOTION_DDOT = 0

CCSDS_OMM_VERS = 2.0
CREATION_DATE  = 
ORIGINATOR     = 

OBJECT_NAME    = COSMOS 2278
OBJECT_ID      = 1994-023A
CENTER_NAME    = EARTH
REF_FRAME      = TEME
TIME_SYSTEM    = UTC
MEAN_ELEMENT_THEORY = SGP/SGP4

EPOCH          = 2026-01-04T07:25:30.889056
MEAN_MOTION    = 14.14355882
ECCENTRICITY   = .0007319
INCLINATION    = 71.0546
RA_OF_ASC_NODE = 309.7907
ARG_OF_PERICENTER = 138.4772
MEAN_ANOMALY   = 221.6908

EPHEMERIS_TYPE = 0
CLASSIFICATION_TYPE = U
NORAD_CAT_ID   = 23087
ELEMENT_SET_NO = 999
REV_AT_EPOCH   = 63570
BSTAR          = .26681E-3
MEAN_MOTION_DOT = .463E-5
MEAN_MOTION_DDOT = 0

CCSDS_OMM_VERS = 2.0
CREATION_DATE  = 
ORIGINATOR     = 

OBJECT_NAME    = SL-16 R/B
OBJECT_ID      = 1994-023B
CENTER_NAME    = EARTH
REF_FRAME      = TEME
TIME_SYSTEM    = UTC
MEAN_ELEMENT_THEORY = SGP/SGP4

EPOCH          = 2026-01-04T05:50:56.391936
MEAN_MOTION    = 14.14999585
ECCENTRICITY   = .0002609
INCLINATION    = 70.9982
RA_OF_ASC_NODE = 206.2278
ARG_OF_PERICENTER = 353.9910
MEAN_ANOMALY   = 6.1181

EPHEMERIS_TYPE = 0
CLASSIFICATION_TYPE = U
NORAD_CAT_ID   = 23088
ELEMENT_SET_NO = 999
REV_AT_EPOCH   = 63697
BSTAR          = .14044E-3
MEAN_MOTION_DOT = .224E-5
MEAN_MOTION_DDOT = 0

CCSDS_OMM_VERS = 2.0
CREATION_DATE  = 
ORIGINATOR     = 

OBJECT_NAME    = SL-16 R/B
OBJECT_ID      = 1994-074B
CENTER_NAME    = EARTH
REF_FRAME      = TEME
TIME_SYSTEM    = UTC
MEAN_ELEMENT_THEORY = SGP/SGP4

EPOCH          = 2026-01-04T13:10:56.401824
MEAN_MOTION    = 14.79321537
ECCENTRICITY   = .0007954
INCLINATION    = 97.7179
RA_OF_ASC_NODE = 37.9446
ARG_OF_PERICENTER = 73.8292
MEAN_ANOMALY   = 50.3486

EPHEMERIS_TYPE = 0
CLASSIFICATION_TYPE = U
NORAD_CAT_ID   = 23343
ELEMENT_SET_NO = 999
REV_AT_EPOCH   = 67776
BSTAR          = .11488E-3
MEAN_MOTION_DOT = .806E-5
MEAN_MOTION_DDOT = 0

CCSDS_OMM_VERS = 2.0
CREATION_DATE  = 
ORIGINATOR     = 

OBJECT_NAME    = SL-16 R/B
OBJECT_ID      = 1994-077B
CENTER_NAME    = EARTH
REF_FRAME      = TEME
TIME_SYSTEM    = UTC
MEAN_ELEMENT_THEORY = SGP/SGP4

EPOCH          = 2026-01-04T12:47:41.251776
MEAN_MOTION    = 14.15550041
ECCENTRICITY   = .0004946
INCLINATION    = 70.9828
RA_OF_ASC_NODE = 127.4634
ARG_OF_PERICENTER = 265.4463
MEAN_ANOMALY   = 94.6095

EPHEMERIS_TYPE = 0
CLASSIFICATION_TYPE = U
NORAD_CAT_ID   = 23405
ELEMENT_SET_NO = 999
REV_AT_EPOCH   = 60715
BSTAR          = -.52866E-5
MEAN_MOTION_DOT = -.58E-6
MEAN_MOTION_DDOT = 0

CCSDS_OMM_VERS = 2.0
CREATION_DATE  = 
ORIGINATOR     = 

OBJECT_NAME    = ARIANE 40+ R/B
OBJECT_ID      = 1995-021B
CENTER_NAME    = EARTH
REF_FRAME      = TEME
TIME_SYSTEM    = UTC
MEAN_ELEMENT_THEORY = SGP/SGP4

EPOCH          = 2026-01-04T04:16:12.263808
MEAN_MOTION    = 14.39716445
ECCENTRICITY   = .00062839
INCLINATION    = 98.4620
RA_OF_ASC_NODE = 76.4932
ARG_OF_PERICENTER = 344.0650
MEAN_ANOMALY   = 41.8767

EPHEMERIS_TYPE = 0
CLASSIFICATION_TYPE = U
NORAD_CAT_ID   = 23561
ELEMENT_SET_NO = 999
REV_AT_EPOCH   = 60996
BSTAR          = .19197122E-3
MEAN_MOTION_DOT = .558E-5
MEAN_MOTION_DDOT = 0

CCSDS_OMM_VERS = 2.0
CREATION_DATE  = 
ORIGINATOR     = 

OBJECT_NAME    = SL-16 R/B
OBJECT_ID      = 1995-058B
CENTER_NAME    = EARTH
REF_FRAME      = TEME
TIME_SYSTEM    = UTC
MEAN_ELEMENT_THEORY = SGP/SGP4

EPOCH          = 2026-01-04T07:47:55.405248
MEAN_MOTION    = 14.15484938
ECCENTRICITY   = .0014169
INCLINATION    = 71.0226
RA_OF_ASC_NODE = 315.3865
ARG_OF_PERICENTER = 224.9165
MEAN_ANOMALY   = 135.0813

EPHEMERIS_TYPE = 0
CLASSIFICATION_TYPE = U
NORAD_CAT_ID   = 23705
ELEMENT_SET_NO = 999
REV_AT_EPOCH   = 55874
BSTAR          = .19921E-3
MEAN_MOTION_DOT = .342E-5
MEAN_MOTION_DDOT = 0

CCSDS_OMM_VERS = 2.0
CREATION_DATE  = 
ORIGINATOR     = 

OBJECT_NAME    = SL-16 R/B
OBJECT_ID      = 1996-051B
CENTER_NAME    = EARTH
REF_FRAME      = TEME
TIME_SYSTEM    = UTC
MEAN_ELEMENT_THEORY = SGP/SGP4

EPOCH          = 2026-01-04T07:02:24.365184
MEAN_MOTION    = 14.12399406
ECCENTRICITY   = .0019361
INCLINATION    = 70.7599
RA_OF_ASC_NODE = 311.5443
ARG_OF_PERICENTER = 233.7372
MEAN_ANOMALY   = 126.1959

EPHEMERIS_TYPE = 0
CLASSIFICATION_TYPE = U
NORAD_CAT_ID   = 24298
ELEMENT_SET_NO = 999
REV_AT_EPOCH   = 51255
BSTAR          = .50673E-4
MEAN_MOTION_DOT = .44E-6
MEAN_MOTION_DDOT = 0

CCSDS_OMM_VERS = 2.0
CREATION_DATE  = 
ORIGINATOR     = 

OBJECT_NAME    = ORBVIEW 2 (SEASTAR)
OBJECT_ID      = 1997-037A
CENTER_NAME    = EARTH
REF_FRAME      = TEME
TIME_SYSTEM    = UTC
MEAN_ELEMENT_THEORY = SGP/SGP4

EPOCH          = 2026-01-04T10:19:24.851136
MEAN_MOTION    = 14.35437706
ECCENTRICITY   = .0001407
INCLINATION    = 98.8472
RA_OF_ASC_NODE = 167.0782
ARG_OF_PERICENTER = 233.6006
MEAN_ANOMALY   = 126.5048

EPHEMERIS_TYPE = 0
CLASSIFICATION_TYPE = U
NORAD_CAT_ID   = 24883
ELEMENT_SET_NO = 999
REV_AT_EPOCH   = 49925
BSTAR          = .18961E-3
MEAN_MOTION_DOT = .498E-5
MEAN_MOTION_DDOT = 0

